CS1                     
1 49261U 21088B   26068.75173904  .00015722  00000+0  51176-3 0  9998
2 49261  97.3882 132.1684 0014129  78.0335 282.2490 15.31848439245182
STARLINK-31738          
1 59535U 24074B   26068.14029075 -.00005155  00000+0 -17800-3 0  9990
2 59535  43.0029 342.7991 0001789 259.9964 100.0686 15.27566278105973
